NOAA 1 [-]              
1 04793U 70106A   22283.43252675 -.00000003  00000+0  25185-3 0  9995
2 04793 101.5443 344.2932 0031922  98.7602 271.2009 12.54008057372004
NOAA 2 (ITOS-D) [-]     
1 06235U 72082A   22284.47965400 -.00000035  00000+0  73195-4 0  9995
2 06235 101.9668 267.4860 0003734 210.7414 301.8126 12.53152468286732
NOAA 3 [-]              
1 06920U 73086A   22283.96624771 -.00000039  00000+0  50847-4 0  9990
2 06920 102.2210 265.8930 0006754  76.4610 348.4417 12.40349146215302
NOAA 4 [-]              
1 07529U 74089A   22284.18736058 -.00000044  00000+0  14999-4 0  9991
2 07529 101.9277 264.2155 0008630 243.0641 127.9411 12.53161035191287
NOAA 5 [-]              
1 09057U 76077A   22283.50192498 -.00000029  00000+0  12483-3 0  9995
2 09057 102.1136 250.3185 0009646 289.4656 185.6842 12.37775018 87972
TIROS N [-]             
1 11060U 78096A   22283.75287720  .00000261  00000+0  14703-3 0  9999
2 11060  98.6229 334.3712 0010922 166.1739 193.9738 14.18422199487950
NOAA 6 [-]              
1 11416U 79057A   22284.03710372  .00000363  00000+0  14676-3 0  9990
2 11416  98.6643 295.0764 0009256 278.8422  81.1714 14.33811451258298
NOAA 7 [-]              
1 12553U 81059A   22283.86367273  .00000093  00000+0  68267-4 0  9992
2 12553  98.9868 329.6455 0012097 144.0501 216.1489 14.17347605134146
NOAA 8 [-]              
1 13923U 83022A   22283.69170353  .00000237  00000+0  11162-3 0  9999
2 13923  98.6968 273.8387 0014171 230.2232 129.7702 14.28840369 58862
NOAA 9 [-]              
1 15427U 84123A   22284.46822833  .00000194  00000+0  12128-3 0  9991
2 15427  99.0598 258.7481 0014508 193.2912 277.0192 14.16231399953263
NOAA 10 [-]             
1 16969U 86073A   22283.76453847  .00000230  00000+0  10988-3 0  9999
2 16969  98.5799 267.8559 0011890 340.0070  70.2152 14.28229802877293
NOAA 11 [-]             
1 19531U 88089A   22283.71754074  .00000091  00000+0  67607-4 0  9993
2 19531  98.4363 266.5261 0010640 201.3596 158.7136 14.15326441757123
NOAA 12 [-]             
1 21263U 91032A   22283.91537418  .00000166  00000+0  87233-4 0  9993
2 21263  98.5209 280.5340 0013752   6.5703 353.5655 14.26016994633185
NOAA 13 [-]             
1 22739U 93050A   22284.44722258  .00000193  00000+0  12583-3 0  9996
2 22739  98.5188 258.5340 0009899  17.7577 342.3940 14.12869286503673
NOAA 14 [-]             
1 23455U 94089A   22284.51583323  .00000088  00000+0  67751-4 0  9992
2 23455  98.4422 304.9143 0009334 358.0711   2.0425 14.14212983433354
NOAA 15 [B]             
1 25338U 98030A   22284.53168540  .00000222  00000+0  11090-3 0  9990
2 25338  98.6359 312.5060 0009620 324.0849  35.9683 14.26181030269813
NOAA 16 [-]             
1 26536U 00055A   22284.49970692  .00000135  00000+0  94230-4 0  9996
2 26536  98.6234 339.3274 0010369 188.4722 171.6277 14.13349082137241
NOAA 17 [-]             
1 27453U 02032A   22283.85565688  .00000247  00000+0  12394-3 0  9990
2 27453  98.6819 227.8170 0010895 299.7813  60.2283 14.25150243 55292
NOAA 18 [B]             
1 28654U 05018A   22284.42607425  .00000276  00000+0  17255-3 0  9994
2 28654  98.9391 354.7154 0014210   8.0403 352.0994 14.12788399896443
NOAA 19 [+]             
1 33591U 09005A   22284.51136457  .00000225  00000+0  14675-3 0  9999
2 33591  99.1375 321.0321 0013351 219.0132 141.0077 14.12620670704831
SUOMI NPP [+]           
1 37849U 11061A   22284.51343457  .00000144  00000+0  89049-4 0  9992
2 37849  98.7398 221.4865 0001025  79.6774  49.0019 14.19550364567653
NOAA 20 [+]             
1 43013U 17073A   22284.45228371  .00000126  00000+0  80341-4 0  9997
2 43013  98.7236 221.2216 0001664  85.0775 275.0591 14.19549513253688
